start=new Date('2022-07-29T00:00:00.000Z').valueOf();
sats=[{"INCLINATION":"53.0543","COUNTRY_CODE":"US","ECCENTRICITY":"0.00013070","TIME_SYSTEM":"UTC","DECAY_DATE":null,"FILE":"3524113","CLASSIFICATION_TYPE":"U","REF_FRAME":"TEME","TLE_LINE2":"2 46129  53.0543  82.3789 0001307  92.3350 267.7789 15.06398285107678","MEAN_MOTION_DOT":"0.00000449","OBJECT_TYPE":"PAYLOAD","LAUNCH_DATE":"2020-08-18","SEMIMAJOR_AXIS":"6925.354","MEAN_ELEMENT_THEORY":"SGP4","TLE_LINE1":"1 46129U 20057N   22209.68070354  .00000449  00000-0  49004-4 0  9992","RCS_SIZE":"LARGE","MEAN_ANOMALY":"267.7789","ARG_OF_PERICENTER":"92.3350","CENTER_NAME":"EARTH","BSTAR":"0.00004900400000","APOAPSIS":"548.124","OBJECT_NAME":"STARLINK-1623","OBJECT_ID":"2020-057N","REV_AT_EPOCH":"10767","MEAN_MOTION_DDOT":"0.0000000000000","SITE":"AFETR","EPOCH":"2022-07-28T16:20:12.785856","ELEMENT_SET_NO":"999","NORAD_CAT_ID":"46129","GP_ID":"209063337","PERIOD":"95.592","EPHEMERIS_TYPE":"0","PERIAPSIS":"546.314","MEAN_MOTION":"15.06398285","RA_OF_ASC_NODE":"82.3789"},{"NORAD_CAT_ID":"46130","GP_ID":"209035372","ELEMENT_SET_NO":"999","RA_OF_ASC_NODE":"83.1082","MEAN_MOTION":"15.06402849","PERIAPSIS":"546.019","PERIOD":"95.592","EPHEMERIS_TYPE":"0","APOAPSIS":"548.391","OBJECT_ID":"2020-057P","OBJECT_NAME":"STARLINK-1624","BSTAR":"0.00000914490000","EPOCH":"2022-07-28T12:21:22.062816","SITE":"AFETR","MEAN_MOTION_DDOT":"0.0000000000000","REV_AT_EPOCH":"10830","RCS_SIZE":"LARGE","MEAN_ELEMENT_THEORY":"SGP4","TLE_LINE1":"1 46130U 20057P   22209.51483869 -.00000145  00000-0  91449-5 0  9990","CENTER_NAME":"EARTH","MEAN_ANOMALY":"296.1030","ARG_OF_PERICENTER":"64.0136","COUNTRY_CODE":"US","ECCENTRICITY":"0.00017130","DECAY_DATE":null,"TIME_SYSTEM":"UTC","INCLINATION":"53.0548","LAUNCH_DATE":"2020-08-18","OBJECT_TYPE":"PAYLOAD","SEMIMAJOR_AXIS":"6925.340","MEAN_MOTION_DOT":"-0.00000145","REF_FRAME":"TEME","TLE_LINE2":"2 46130  53.0548  83.1082 0001713  64.0136 296.1030 15.06402849108307","CLASSIFICATION_TYPE":"U","FILE":"3523736"},{"EPHEMERIS_TYPE":"0","PERIOD":"95.592","RA_OF_ASC_NODE":"102.1576","PERIAPSIS":"546.089","MEAN_MOTION":"15.06404788","ELEMENT_SET_NO":"999","NORAD_CAT_ID":"46131","GP_ID":"209064835","MEAN_MOTION_DDOT":"0.0000000000000","REV_AT_EPOCH":"10865","EPOCH":"2022-07-28T17:26:33.075744","SITE":"AFETR","BSTAR":"0.00004178700000","OBJECT_ID":"2020-057Q","OBJECT_NAME":"STARLINK-1625","APOAPSIS":"548.308","CENTER_NAME":"EARTH","ARG_OF_PERICENTER":"84.3830","MEAN_ANOMALY":"275.7341","RCS_SIZE":"LARGE","TLE_LINE1":"1 46131U 20057Q   22209.72677171  .00000341  00000-0  41787-4 0  9991","MEAN_ELEMENT_THEORY":"SGP4","TLE_LINE2":"2 46131  53.0538 102.1576 0001602  84.3830 275.7341 15.06404788108650","REF_FRAME":"TEME","CLASSIFICATION_TYPE":"U","FILE":"3524113","SEMIMAJOR_AXIS":"6925.334","LAUNCH_DATE":"2020-08-18","OBJECT_TYPE":"PAYLOAD","MEAN_MOTION_DOT":"0.00000341","DECAY_DATE":null,"TIME_SYSTEM":"UTC","COUNTRY_CODE":"US","ECCENTRICITY":"0.00016020","INCLINATION":"53.0538"},{"GP_ID":"209063587","NORAD_CAT_ID":"46132","ELEMENT_SET_NO":"999","PERIAPSIS":"546.023","MEAN_MOTION":"15.06396085","RA_OF_ASC_NODE":"121.7087","PERIOD":"95.592","EPHEMERIS_TYPE":"0","APOAPSIS":"548.428","OBJECT_NAME":"STARLINK-1630","OBJECT_ID":"2020-057R","BSTAR":"0.00002852200000","SITE":"AFETR","EPOCH":"2022-07-28T19:57:49.864896","REV_AT_EPOCH":"10839","MEAN_MOTION_DDOT":"0.0000000000000","MEAN_ELEMENT_THEORY":"SGP4","TLE_LINE1":"1 46132U 20057R   22209.83182714  .00000143  00000-0  28522-4 0  9990","RCS_SIZE":"LARGE","MEAN_ANOMALY":"306.7983","ARG_OF_PERICENTER":"53.3166","CENTER_NAME":"EARTH","INCLINATION":"53.0560","ECCENTRICITY":"0.00017370","COUNTRY_CODE":"US","DECAY_DATE":null,"TIME_SYSTEM":"UTC","MEAN_MOTION_DOT":"0.00000143","LAUNCH_DATE":"2020-08-18","OBJECT_TYPE":"PAYLOAD","SEMIMAJOR_AXIS":"6925.361","FILE":"3524113","CLASSIFICATION_TYPE":"U","REF_FRAME":"TEME","TLE_LINE2":"2 46132  53.0560 121.7087 0001737  53.3166 306.7983 15.06396085108395"},{"PERIOD":"95.592","EPHEMERIS_TYPE":"0","RA_OF_ASC_NODE":"81.9908","PERIAPSIS":"546.311","MEAN_MOTION":"15.06402196","ELEMENT_SET_NO":"999","NORAD_CAT_ID":"46133","GP_ID":"209063837","MEAN_MOTION_DDOT":"0.0000000000000","REV_AT_EPOCH":"10893","EPOCH":"2022-07-28T18:22:17.640480","SITE":"AFETR","BSTAR":"0.00003272100000","APOAPSIS":"548.103","OBJECT_NAME":"STARLINK-1637","OBJECT_ID":"2020-057S","CENTER_NAME":"EARTH","MEAN_ANOMALY":"263.3392","ARG_OF_PERICENTER":"96.7744","RCS_SIZE":"LARGE","MEAN_ELEMENT_THEORY":"SGP4","TLE_LINE1":"1 46133U 20057S   22209.76548195  .00000206  00000-0  32721-4 0  9998","REF_FRAME":"TEME","TLE_LINE2":"2 46133  53.0558  81.9908 0001294  96.7744 263.3392 15.06402196108936","CLASSIFICATION_TYPE":"U","FILE":"3524113","LAUNCH_DATE":"2020-08-18","OBJECT_TYPE":"PAYLOAD","SEMIMAJOR_AXIS":"6925.342","MEAN_MOTION_DOT":"0.00000206","COUNTRY_CODE":"US","ECCENTRICITY":"0.00012940","TIME_SYSTEM":"UTC","DECAY_DATE":null,"INCLINATION":"53.0558"},{"MEAN_ELEMENT_THEORY":"SGP4","TLE_LINE1":"1 46134U 20057T   22209.76821632  .00001188  00000-0  98607-4 0  9994","RCS_SIZE":"LARGE","MEAN_ANOMALY":"274.2800","ARG_OF_PERICENTER":"85.8339","CENTER_NAME":"EARTH","INCLINATION":"53.0559","ECCENTRICITY":"0.00013100","COUNTRY_CODE":"US","TIME_SYSTEM":"UTC","DECAY_DATE":null,"FILE":"3524113","CLASSIFICATION_TYPE":"U","REF_FRAME":"TEME","TLE_LINE2":"2 46134  53.0559  81.9665 0001310  85.8339 274.2800 15.06398995107683","MEAN_MOTION_DOT":"0.00001188","LAUNCH_DATE":"2020-08-18","OBJECT_TYPE":"PAYLOAD","SEMIMAJOR_AXIS":"6925.352","ELEMENT_SET_NO":"999","GP_ID":"209064088","NORAD_CAT_ID":"46134","PERIOD":"95.592","EPHEMERIS_TYPE":"0","PERIAPSIS":"546.309","MEAN_MOTION":"15.06398995","RA_OF_ASC_NODE":"81.9665","BSTAR":"0.00009860700000","APOAPSIS":"548.124","OBJECT_NAME":"STARLINK-1638","OBJECT_ID":"2020-057T","REV_AT_EPOCH":"10768","MEAN_MOTION_DDOT":"0.0000000000000","SITE":"AFETR","EPOCH":"2022-07-28T18:26:13.890048"},{"ELEMENT_SET_NO":"999","GP_ID":"209064336","NORAD_CAT_ID":"46135","EPHEMERIS_TYPE":"0","PERIOD":"95.592","RA_OF_ASC_NODE":"81.6082","PERIAPSIS":"546.222","MEAN_MOTION":"15.06403448","BSTAR":"0.00015490000000","OBJECT_NAME":"STARLINK-1639","OBJECT_ID":"2020-057U","APOAPSIS":"548.184","MEAN_MOTION_DDOT":"0.0000000000000","REV_AT_EPOCH":"10769","EPOCH":"2022-07-28T20:24:21.628512","SITE":"AFETR","RCS_SIZE":"LARGE","MEAN_ELEMENT_THEORY":"SGP4","TLE_LINE1":"1 46135U 20057U   22209.85025033  .00002027  00000-0  15490-3 0  9997","CENTER_NAME":"EARTH","ARG_OF_PERICENTER":"82.1999","MEAN_ANOMALY":"277.9150","TIME_SYSTEM":"UTC","DECAY_DATE":null,"ECCENTRICITY":"0.00014170","COUNTRY_CODE":"US","INCLINATION":"53.0554","TLE_LINE2":"2 46135  53.0554  81.6082 0001417  82.1999 277.9150 15.06403448107698","REF_FRAME":"TEME","FILE":"3524113","CLASSIFICATION_TYPE":"U","SEMIMAJOR_AXIS":"6925.338","LAUNCH_DATE":"2020-08-18","OBJECT_TYPE":"PAYLOAD","MEAN_MOTION_DOT":"0.00002027"},{"REV_AT_EPOCH":"10726","MEAN_MOTION_DDOT":"0.0000000000000","SITE":"AFETR","EPOCH":"2022-07-28T18:22:15.404448","BSTAR":"0.00007225900000","APOAPSIS":"548.206","OBJECT_ID":"2020-057V","OBJECT_NAME":"STARLINK-1643","PERIOD":"95.592","EPHEMERIS_TYPE":"0","PERIAPSIS":"546.172","MEAN_MOTION":"15.06408043","RA_OF_ASC_NODE":"111.9696","ELEMENT_SET_NO":"999","NORAD_CAT_ID":"46136","GP_ID":"209063087","FILE":"3524113","CLASSIFICATION_TYPE":"U","REF_FRAME":"TEME","TLE_LINE2":"2 46136  53.0538 111.9696 0001468  78.4384 281.6770 15.06408043107260","MEAN_MOTION_DOT":"0.00000795","LAUNCH_DATE":"2020-08-18","OBJECT_TYPE":"PAYLOAD","SEMIMAJOR_AXIS":"6925.324","INCLINATION":"53.0538","COUNTRY_CODE":"US","ECCENTRICITY":"0.00014680","TIME_SYSTEM":"UTC","DECAY_DATE":null,"MEAN_ANOMALY":"281.6770","ARG_OF_PERICENTER":"78.4384","CENTER_NAME":"EARTH","TLE_LINE1":"1 46136U 20057V   22209.76545607  .00000795  00000-0  72259-4 0  9999","MEAN_ELEMENT_THEORY":"SGP4","RCS_SIZE":"LARGE"},{"OBJECT_ID":"2020-057W","OBJECT_NAME":"STARLINK-1586","APOAPSIS":"548.575","BSTAR":"0.00016560000000","EPOCH":"2022-07-28T18:51:29.133504","SITE":"AFETR","MEAN_MOTION_DDOT":"0.0000000000000","REV_AT_EPOCH":"10740","GP_ID":"209063338","NORAD_CAT_ID":"46137","ELEMENT_SET_NO":"999","RA_OF_ASC_NODE":"101.9073","MEAN_MOTION":"15.06405192","PERIAPSIS":"545.820","EPHEMERIS_TYPE":"0","PERIOD":"95.592","TIME_SYSTEM":"UTC","DECAY_DATE":null,"COUNTRY_CODE":"US","ECCENTRICITY":"0.00019890","INCLINATION":"53.0543","SEMIMAJOR_AXIS":"6925.333","LAUNCH_DATE":"2020-08-18","OBJECT_TYPE":"PAYLOAD","MEAN_MOTION_DOT":"0.00002186","TLE_LINE2":"2 46137  53.0543 101.9073 0001989  55.0564 305.0612 15.06405192107408","REF_FRAME":"TEME","CLASSIFICATION_TYPE":"U","FILE":"3524113","RCS_SIZE":"LARGE","TLE_LINE1":"1 46137U 20057W   22209.78575386  .00002186  00000-0  16560-3 0  9997","MEAN_ELEMENT_THEORY":"SGP4","CENTER_NAME":"EARTH","ARG_OF_PERICENTER":"55.0564","MEAN_ANOMALY":"305.0612"},{"GP_ID":"209064588","NORAD_CAT_ID":"46138","ELEMENT_SET_NO":"999","PERIAPSIS":"546.089","MEAN_MOTION":"15.06398532","RA_OF_ASC_NODE":"121.6110","PERIOD":"95.592","EPHEMERIS_TYPE":"0","APOAPSIS":"548.348","OBJECT_ID":"2020-057X","OBJECT_NAME":"STARLINK-1590","BSTAR":"0.00004370800000","SITE":"AFETR","EPOCH":"2022-07-28T20:24:22.077792","REV_AT_EPOCH":"10713","MEAN_MOTION_DDOT":"0.0000000000000","TLE_LINE1":"1 46138U 20057X   22209.85025553  .00000370  00000-0  43708-4 0  9990","MEAN_ELEMENT_THEORY":"SGP4","RCS_SIZE":"LARGE","MEAN_ANOMALY":"290.6970","ARG_OF_PERICENTER":"69.4194","CENTER_NAME":"EARTH","INCLINATION":"53.0554","COUNTRY_CODE":"US","ECCENTRICITY":"0.00016310","DECAY_DATE":null,"TIME_SYSTEM":"UTC","MEAN_MOTION_DOT":"0.00000370","OBJECT_TYPE":"PAYLOAD","LAUNCH_DATE":"2020-08-18","SEMIMAJOR_AXIS":"6925.353","CLASSIFICATION_TYPE":"U","FILE":"3524113","REF_FRAME":"TEME","TLE_LINE2":"2 46138  53.0554 121.6110 0001631  69.4194 290.6970 15.06398532107139"}];
